{
    "links": {
        "self": "http://www.neowsapp.com/rest/v1/neo/3293827?api_key=iIulBulltgU6a56xZRHN4H3l9WmuAYTsLGpBGhQ2"
    },
    "id": "3293827",
    "neo_reference_id": "3293827",
    "name": "(2005 TS45)",
    "designation": "2005 TS45",
    "nasa_jpl_url": "http://ssd.jpl.nasa.gov/sbdb.cgi?sstr=3293827",
    "absolute_magnitude_h": 21.3,
    "estimated_diameter": {
        "kilometers": {
            "estimated_diameter_min": 0.1460679643,
            "estimated_diameter_max": 0.3266178974
        },
        "meters": {
            "estimated_diameter_min": 146.0679642714,
            "estimated_diameter_max": 326.6178974458
        },
        "miles": {
            "estimated_diameter_min": 0.090762397,
            "estimated_diameter_max": 0.2029508896
        },
        "feet": {
            "estimated_diameter_min": 479.2256199,
            "estimated_diameter_max": 1071.581062656
        }
    },
    "is_potentially_hazardous_asteroid": false,
    "close_approach_data": [
        {
            "close_approach_date": "2005-10-03",
            "close_approach_date_full": "2005-Oct-03 08:43",
            "epoch_date_close_approach": 1128328980000,
            "relative_velocity": {
                "kilometers_per_second": "2.0190825428",
                "kilometers_per_hour": "7268.6971541387",
                "miles_per_hour": "4516.4857400258"
            },
            "miss_distance": {
                "astronomical": "0.2912701395",
                "lunar": "113.3040842655",
                "kilometers": "43573392.463802865",
                "miles": "27075250.580954937"
            },
            "orbiting_body": "Earth"
        },
        {
            "close_approach_date": "2005-12-24",
            "close_approach_date_full": "2005-Dec-24 06:20",
            "epoch_date_close_approach": 1135405200000,
            "relative_velocity": {
                "kilometers_per_second": "6.7304128466",
                "kilometers_per_hour": "24229.4862478855",
                "miles_per_hour": "15055.2604966375"
            },
            "miss_distance": {
                "astronomical": "0.0482828169",
                "lunar": "18.7820157741",
                "kilometers": "7223006.565840003",
                "miles": "4488168.1608899214"
            },
            "orbiting_body": "Mars"
        }
    ],
    "orbital_data": {
        "orbit_id": "11",
        "orbit_determination_date": "2017-04-06 09:10:16",
        "first_observation_date": "2005-10-07",
        "last_observation_date": "2005-10-23",
        "data_arc_in_days": 16,
        "observations_used": 42,
        "orbit_uncertainty": "7",
        "minimum_orbit_intersection": ".294706",
        "jupiter_tisserand_invariant": "3.407",
        "epoch_osculation": "2459000.5",
        "eccentricity": ".4525176782580166",
        "semi_major_axis": "2.355414829161637",
        "inclination": "2.995142190230454",
        "ascending_node_longitude": "300.9089749654908",
        "orbital_period": "1320.381814773206",
        "perihelion_distance": "1.28954797933491",
        "perihelion_argument": "70.19981752328252",
        "aphelion_distance": "3.421281678988364",
        "perihelion_time": "2458922.864084541935",
        "mean_anomaly": "21.16730876795959",
        "mean_motion": ".2726484081892895",
        "equinox": "J2000",
        "orbit_class": {
            "orbit_class_type": "AMO",
            "orbit_class_description": "Near-Earth asteroid orbits similar to that of 1221 Amor",
            "orbit_class_range": "1.017 AU < q (perihelion) < 1.3 AU"
        }
    },
    "is_sentry_object": false
}